CCSDS_OMM_VERS,COMMENT,CREATION_DATE,ORIGINATOR,OBJECT_NAME,OBJECT_ID,CENTER_NAME,REF_FRAME,TIME_SYSTEM,MEAN_ELEMENT_THEORY,EPOCH,MEAN_MOTION,ECCENTRICITY,INCLINATION,RA_OF_ASC_NODE,ARG_OF_PERICENTER,MEAN_ANOMALY,EPHEMERIS_TYPE,CLASSIFICATION_TYPE,NORAD_CAT_ID,ELEMENT_SET_NO,REV_AT_EPOCH,BSTAR,MEAN_MOTION_DOT,MEAN_MOTION_DDOT,SEMIMAJOR_AXIS,PERIOD,APOAPSIS,PERIAPSIS,OBJECT_TYPE,RCS_SIZE,COUNTRY_CODE,LAUNCH_DATE,SITE,DECAY_DATE,FILE,GP_ID,TLE_LINE0,TLE_LINE1,TLE_LINE2
"2.0","GENERATED VIA SPACE-TRACK.ORG API","2019-07-22T06:40:16","18 SPCS","AEOLUS","2018-066A","EARTH","TEME","UTC","SGP4","2019-07-21T23:20:05.742816","15.86706370","0.00025500","96.7180","209.3103","91.4604","323.4614","0","U","43600","999","5280","0.00006804100000","0.00017094","0.0000000000000","6689.661","90.754","313.232","309.820","PAYLOAD","LARGE","ESA","2018-08-22","FRGUI","","2516810","135487465","0 AEOLUS","1 43600U 18066A   19202.97228869  .00017094  00000-0  68041-4 0  9993","2 43600  96.7180 209.3103 0002550  91.4604 323.4614 15.86706370 52801"
"2.0","GENERATED VIA SPACE-TRACK.ORG API","2019-07-22T14:40:16","18 SPCS","AEOLUS","2018-066A","EARTH","TEME","UTC","SGP4","2019-07-22T11:52:05.168928","15.86720177","0.00024880","96.7186","209.8247","91.9795","63.8673","0","U","43600","999","5288","0.00006368900000","0.00016001","0.0000000000000","6689.622","90.753","313.151","309.823","PAYLOAD","LARGE","ESA","2018-08-22","FRGUI","","2516928","135489756","0 AEOLUS","1 43600U 18066A   19203.49450427  .00016001  00000-0  63689-4 0  9998","2 43600  96.7186 209.8247 0002488  91.9795  63.8673 15.86720177 52886"
"2.0","GENERATED VIA SPACE-TRACK.ORG API","2019-07-22T22:30:15","18 SPCS","STARLINK","2019-029AC","EARTH","TEME","UTC","SGP4","2019-07-22T15:59:09.386304","15.05502921","0.00016930","53.0006","264.7367","180.7250","179.3736","0","U","44261","999","913","0.00004706800000","0.00000405","0.0000000000000","6928.099","95.649","551.137","548.791","PAYLOAD","LARGE","US","2019-05-24","AFETR","","2517069","135511147","0 STARLINK","1 44261U 19029AC  19203.66608086  .00000405  00000-0  47068-4 0  9991","2 44261  53.0006 264.7367 0001693 180.7250 179.3736 15.05502921  9139"
"2.0","GENERATED VIA SPACE-TRACK.ORG API","2019-07-23T06:40:15","18 SPCS","AEOLUS","2018-066A","EARTH","TEME","UTC","SGP4","2019-07-22T23:33:04.790880","15.86730836","0.00025840","96.7193","210.3042","94.9308","319.7090","0","U","43600","999","5296","0.00005855700000","0.00014706","0.0000000000000","6689.592","90.752","313.186","309.728","PAYLOAD","LARGE","ESA","2018-08-22","FRGUI","","2517337","135554627","0 AEOLUS","1 43600U 18066A   19203.98130545  .00014706  00000-0  58557-4 0  9996","2 43600  96.7193 210.3042 0002584  94.9308 319.7090 15.86730836 52962"
"2.0","GENERATED VIA SPACE-TRACK.ORG API","2019-07-23T15:10:14","18 SPCS","AEOLUS","2018-066A","EARTH","TEME","UTC","SGP4","2019-07-23T11:57:50.514912","15.86746835","0.00025320","96.7198","210.8145","99.6718","27.2992","0","U","43600","999","5304","0.00005898700000","0.00014827","0.0000000000000","6689.547","90.751","313.106","309.718","PAYLOAD","LARGE","ESA","2018-08-22","FRGUI","","2517551","135559025","0 AEOLUS","1 43600U 18066A   19204.49850133  .00014827  00000-0  58987-4 0  9996","2 43600  96.7198 210.8145 0002532  99.6718  27.2992 15.86746835 53044"
"2.0","GENERATED VIA SPACE-TRACK.ORG API","2019-07-23T23:50:12","18 SPCS","AEOLUS","2018-066A","EARTH","TEME","UTC","SGP4","2019-07-23T12:05:15.817056","15.86747249","0.00025440","96.7198","210.8195","100.0629","56.3295","0","U","43600","999","5304","0.00005923600000","0.00014890","0.0000000000000","6689.546","90.751","313.113","309.709","PAYLOAD","LARGE","ESA","2018-08-22","FRGUI","","2517766","135582589","0 AEOLUS","1 43600U 18066A   19204.50365529  .00014890  00000-0  59236-4 0  9996","2 43600  96.7198 210.8195 0002544 100.0629  56.3295 15.86747249 53049"
"2.0","GENERATED VIA SPACE-TRACK.ORG API","2019-07-23T14:20:15","18 SPCS","STARLINK","2019-029AC","EARTH","TEME","UTC","SGP4","2019-07-23T12:41:55.237920","15.05473371","0.00015750","53.0004","260.8629","180.9404","179.1581","0","U","44261","999","926","0.00005024000000","0.00000451","0.0000000000000","6928.189","95.650","551.146","548.963","PAYLOAD","LARGE","US","2019-05-24","AFETR","","2517428","135556016","0 STARLINK","1 44261U 19029AC  19204.52911155  .00000451  00000-0  50240-4 0  9998","2 44261  53.0004 260.8629 0001575 180.9404 179.1581 15.05473371  9263"
"2.0","GENERATED VIA SPACE-TRACK.ORG API","2019-07-24T04:51:55","18 SPCS","STARLINK","2019-029AC","EARTH","TEME","UTC","SGP4","2019-07-23T19:04:18.714720","15.05472860","0.00015860","53.0004","259.6711","180.6333","179.4653","0","U","44261","999","836","0.00005073200000","0.00000458","0.0000000000000","6928.191","95.651","551.155","548.957","PAYLOAD","LARGE","US","2019-05-24","AFETR","","2517772","135601396","0 STARLINK","1 44261U 19029AC  19204.79466105 +.00000458 +00000-0 +50732-4 0  9990","2 44261 053.0004 259.6711 0001586 180.6333 179.4653 15.05472860008366"
"2.0","GENERATED VIA SPACE-TRACK.ORG API","2019-07-24T06:40:15","18 SPCS","AEOLUS","2018-066A","EARTH","TEME","UTC","SGP4","2019-07-24T01:11:17.738304","15.86764403","0.00025450","96.7187","211.3572","97.4435","294.9108","0","U","43600","999","5313","0.00005974200000","0.00015032","0.0000000000000","6689.498","90.750","313.065","309.660","PAYLOAD","LARGE","ESA","2018-08-22","FRGUI","","2517937","135605436","0 AEOLUS","1 43600U 18066A   19205.04951086  .00015032  00000-0  59742-4 0  9996","2 43600  96.7187 211.3572 0002545  97.4435 294.9108 15.86764403 53131"
"2.0","GENERATED VIA SPACE-TRACK.ORG API","2019-07-24T16:40:15","18 SPCS","AEOLUS","2018-066A","EARTH","TEME","UTC","SGP4","2019-07-24T06:22:49.999872","15.86775331","0.00027130","96.7197","211.5714","97.1238","90.2357","0","U","43600","999","5316","0.00006491100000","0.00016356","0.0000000000000","6689.467","90.750","313.147","309.517","PAYLOAD","LARGE","ESA","2018-08-22","FRGUI","","2518069","135608260","0 AEOLUS","1 43600U 18066A   19205.26585648  .00016356  00000-0  64911-4 0  9991","2 43600  96.7197 211.5714 0002713  97.1238  90.2357 15.86775331 53165"
"2.0","GENERATED VIA SPACE-TRACK.ORG API","2019-07-24T22:50:14","18 SPCS","AEOLUS","2018-066A","EARTH","TEME","UTC","SGP4","2019-07-24T13:48:16.458336","15.86785433","0.00027180","96.7186","211.8754","97.6965","55.4916","0","U","43600","999","5321","0.00006472500000","0.00016316","0.0000000000000","6689.439","90.749","313.122","309.485","PAYLOAD","LARGE","ESA","2018-08-22","FRGUI","","2518221","135630944","0 AEOLUS","1 43600U 18066A   19205.57519049  .00016316  00000-0  64725-4 0  9996","2 43600  96.7186 211.8754 0002718  97.6965  55.4916 15.86785433 53211"
"2.0","GENERATED VIA SPACE-TRACK.ORG API","2019-07-24T22:20:14","18 SPCS","STARLINK","2019-029AC","EARTH","TEME","UTC","SGP4","2019-07-24T15:47:04.994880","15.05472927","0.00015230","53.0001","255.7974","184.5493","175.5481","0","U","44261","999","943","0.00001362100000","-0.00000081","0.0000000000000","6928.191","95.651","551.111","549.001","PAYLOAD","LARGE","US","2019-05-24","AFETR","","2518135","135628888","0 STARLINK","1 44261U 19029AC  19205.65769670 -.00000081  00000-0  13621-4 0  9998","2 44261  53.0001 255.7974 0001523 184.5493 175.5481 15.05472927  9431"
"2.0","GENERATED VIA SPACE-TRACK.ORG API","2019-07-25T07:00:15","18 SPCS","AEOLUS","2018-066A","EARTH","TEME","UTC","SGP4","2019-07-25T01:29:45.854592","15.86804735","0.00026810","96.7188","212.3550","95.0990","318.9846","0","U","43600","999","5329","0.00006800300000","0.00017167","0.0000000000000","6689.384","90.748","313.043","309.456","PAYLOAD","LARGE","ESA","2018-08-22","FRGUI","","2518375","135634214","0 AEOLUS","1 43600U 18066A   19206.06233628  .00017167  00000-0  68003-4 0  9995","2 43600  96.7188 212.3550 0002681  95.0990 318.9846 15.86804735 53296"
"2.0","GENERATED VIA SPACE-TRACK.ORG API","2019-07-25T20:40:15","18 SPCS","AEOLUS","2018-066A","EARTH","TEME","UTC","SGP4","2019-07-25T14:00:10.239840","15.86822914","0.00027200","96.7190","212.8684","92.9851","55.9394","0","U","43600","999","5337","0.00006839900000","0.00017284","0.0000000000000","6689.333","90.747","313.018","309.379","PAYLOAD","LARGE","ESA","2018-08-22","FRGUI","","2518705","135698593","0 AEOLUS","1 43600U 18066A   19206.58345185  .00017284  00000-0  68399-4 0  9992","2 43600  96.7190 212.8684 0002720  92.9851  55.9394 15.86822914 53372"
"2.0","GENERATED VIA SPACE-TRACK.ORG API","2019-07-25T20:20:15","18 SPCS","STARLINK","2019-029AC","EARTH","TEME","UTC","SGP4","2019-07-25T15:41:01.855680","15.05505314","0.00014370","53.0001","251.3278","184.3464","175.7511","0","U","44261","999","958","0.00001093800000","-0.00000120","0.0000000000000","6928.091","95.648","550.952","548.961","PAYLOAD","LARGE","US","2019-05-24","AFETR","","2518585","135695612","0 STARLINK","1 44261U 19029AC  19206.65349370 -.00000120  00000-0  10938-4 0  9992","2 44261  53.0001 251.3278 0001437 184.3464 175.7511 15.05505314  9589"
"2.0","GENERATED VIA SPACE-TRACK.ORG API","2019-07-25T22:50:15","18 SPCS","AEOLUS","2018-066A","EARTH","TEME","UTC","SGP4","2019-07-25T19:23:36.000384","15.86833172","0.00028700","96.7210","213.0910","98.8743","252.2455","0","U","43600","999","5340","0.00007027300000","0.00017771","0.0000000000000","6689.304","90.746","313.089","309.250","PAYLOAD","LARGE","ESA","2018-08-22","FRGUI","","2518738","135699248","0 AEOLUS","1 43600U 18066A   19206.80805556  .00017771  00000-0  70273-4 0  9995","2 43600  96.7210 213.0910 0002870  98.8743 252.2455 15.86833172 53403"
